{"type": "FeatureCollection", "features": [{"type": "Feature", "properties": {"norad_id": 22490, "name": "SCD 1", "group": "resource", "lat": -10.990649626829251, "lon": -157.98440305172682, "alt_km": 733.250476453717, "timestamp": "2025-12-21T03:56:50.510974+00:00", "meta": {"OBJECT_NAME": "SCD 1", "OBJECT_ID": "1993-009B", "EPOCH": "2025-12-20T02:06:40.199328", "MEAN_MOTION": 14.46003712, "ECCENTRICITY": 0.00420998, "INCLINATION": 24.9683, "RA_OF_ASC_NODE": 233.3258, "ARG_OF_PERICENTER": 42.7923, "MEAN_ANOMALY": 75.5892, "EPHEMERIS_TYPE": 0, "CLASSIFICATION_TYPE": "U", "NORAD_CAT_ID": 22490, "ELEMENT_SET_NO": 999, "REV_AT_EPOCH": 73516, "BSTAR": 6.2477864e-05, "MEAN_MOTION_DOT": 4.13e-06, "MEAN_MOTION_DDOT": 0}, "tle": {"line1": "1 22490U 93009B   25354.08796527  .00000413  00000+0  62478-4 0  9999", "line2": "2 22490  24.9683 233.3258 0042099  42.7923  75.5892 14.46003712735164"}}, "geometry": {"type": "Point", "coordinates": [-157.98440305172682, -10.990649626829251]}}, {"type": "Feature", "properties": {"norad_id": 25397, "name": "TECHSAT 1B (GO-32)", "group": "resource", "lat": 34.506772513853925, "lon": 164.82091079055922, "alt_km": 808.5385433454858, "timestamp": "2025-12-21T03:56:50.511007+00:00", "meta": {"OBJECT_NAME": "TECHSAT 1B (GO-32)", "OBJECT_ID": "1998-043D", "EPOCH": "2025-12-20T12:05:47.212224", "MEAN_MOTION": 14.24379082, "ECCENTRICITY": 0.0001814, "INCLINATION": 98.9927, "RA_OF_ASC_NODE": 337.8955, "ARG_OF_PERICENTER": 45.0313, "MEAN_ANOMALY": 315.1012, "EPHEMERIS_TYPE": 0, "CLASSIFICATION_TYPE": "U", "NORAD_CAT_ID": 25397, "ELEMENT_SET_NO": 999, "REV_AT_EPOCH": 42589, "BSTAR": 3.7448e-05, "MEAN_MOTION_DOT": 4e-07, "MEAN_MOTION_DDOT": 0}, "tle": {"line1": "1 25397U 98043D   25354.50401866  .00000040  00000+0  37448-4 0  9992", "line2": "2 25397  98.9927 337.8955 0001814  45.0313 315.1012 14.24379082425893"}}, "geometry": {"type": "Point", "coordinates": [164.82091079055922, 34.506772513853925]}}, {"type": "Feature", "properties": {"norad_id": 25504, "name": "SCD 2", "group": "resource", "lat": -5.076214723205593, "lon": 78.95764786899716, "alt_km": 732.2846736726879, "timestamp": "2025-12-21T03:56:50.511020+00:00", "meta": {"OBJECT_NAME": "SCD 2", "OBJECT_ID": "1998-060A", "EPOCH": "2025-12-20T14:51:05.311008", "MEAN_MOTION": 14.45427239, "ECCENTRICITY": 0.0016975, "INCLINATION": 24.9946, "RA_OF_ASC_NODE": 93.3121, "ARG_OF_PERICENTER": 36.8974, "MEAN_ANOMALY": 346.0798, "EPHEMERIS_TYPE": 0, "CLASSIFICATION_TYPE": "U", "NORAD_CAT_ID": 25504, "ELEMENT_SET_NO": 999, "REV_AT_EPOCH": 43446, "BSTAR": 4.6833e-05, "MEAN_MOTION_DOT": 3.49e-06, "MEAN_MOTION_DDOT": 0}, "tle": {"line1": "1 25504U 98060A   25354.61881147  .00000349  00000+0  46833-4 0  9997", "line2": "2 25504  24.9946  93.3121 0016975  36.8974 346.0798 14.45427239434465"}}, "geometry": {"type": "Point", "coordinates": [78.95764786899716, -5.076214723205593]}}, {"type": "Feature", "properties": {"norad_id": 25757, "name": "DLR-TUBSAT", "group": "resource", "lat": 48.80731263679946, "lon": 169.96270047819954, "alt_km": 705.4269193695054, "timestamp": "2025-12-21T03:56:50.511031+00:00", "meta": {"OBJECT_NAME": "DLR-TUBSAT", "OBJECT_ID": "1999-029B", "EPOCH": "2025-12-17T13:22:10.787520", "MEAN_MOTION": 14.52359578, "ECCENTRICITY": 0.00141996, "INCLINATION": 98.6566, "RA_OF_ASC_NODE": 336.2196, "ARG_OF_PERICENTER": 177.8976, "MEAN_ANOMALY": 182.2281, "EPHEMERIS_TYPE": 0, "CLASSIFICATION_TYPE": "U", "NORAD_CAT_ID": 25757, "ELEMENT_SET_NO": 999, "REV_AT_EPOCH": 40688, "BSTAR": 3.7650132e-05, "MEAN_MOTION_DOT": 1.05e-06, "MEAN_MOTION_DDOT": 0}, "tle": {"line1": "1 25757U 99029B   25351.55706930  .00000105  00000+0  37650-4 0  9996", "line2": "2 25757  98.6566 336.2196 0014199 177.8976 182.2281 14.52359578406886"}}, "geometry": {"type": "Point", "coordinates": [169.96270047819954, 48.80731263679946]}}, {"type": "Feature", "properties": {"norad_id": 25994, "name": "TERRA", "group": "resource", "lat": 81.7618463648214, "lon": -57.96843838561527, "alt_km": 680.3632262296715, "timestamp": "2025-12-21T03:56:50.511042+00:00", "meta": {"OBJECT_NAME": "TERRA", "OBJECT_ID": "1999-068A", "EPOCH": "2025-12-20T19:36:26.265888", "MEAN_MOTION": 14.6091003, "ECCENTRICITY": 0.0003531, "INCLINATION": 97.9737, "RA_OF_ASC_NODE": 46.2046, "ARG_OF_PERICENTER": 78.4869, "MEAN_ANOMALY": 347.0343, "EPHEMERIS_TYPE": 0, "CLASSIFICATION_TYPE": "U", "NORAD_CAT_ID": 25994, "ELEMENT_SET_NO": 999, "REV_AT_EPOCH": 38356, "BSTAR": 7.2562e-05, "MEAN_MOTION_DOT": 3.11e-06, "MEAN_MOTION_DDOT": 0}, "tle": {"line1": "1 25994U 99068A   25354.81697067  .00000311  00000+0  72562-4 0  9994", "line2": "2 25994  97.9737  46.2046 0003531  78.4869 347.0343 14.60910030383562"}}, "geometry": {"type": "Point", "coordinates": [-57.96843838561527, 81.7618463648214]}}, {"type": "Feature", "properties": {"norad_id": 27004, "name": "MAROC-TUBSAT", "group": "resource", "lat": -35.66467971474576, "lon": -23.361798580748, "alt_km": 991.6648944710714, "timestamp": "2025-12-21T03:56:50.511052+00:00", "meta": {"OBJECT_NAME": "MAROC-TUBSAT", "OBJECT_ID": "2001-056D", "EPOCH": "2025-12-20T16:40:20.254368", "MEAN_MOTION": 13.70253273, "ECCENTRICITY": 0.0019181, "INCLINATION": 99.7915, "RA_OF_ASC_NODE": 163.279, "ARG_OF_PERICENTER": 239.0349, "MEAN_ANOMALY": 180.9715, "EPHEMERIS_TYPE": 0, "CLASSIFICATION_TYPE": "U", "NORAD_CAT_ID": 27004, "ELEMENT_SET_NO": 999, "REV_AT_EPOCH": 20174, "BSTAR": 1.6153e-05, "MEAN_MOTION_DOT": -3.2e-07, "MEAN_MOTION_DDOT": 0}, "tle": {"line1": "1 27004U 01056D   25354.69467887 -.00000032  00000+0  16153-4 0  9994", "line2": "2 27004  99.7915 163.2790 0019181 239.0349 180.9715 13.70253273201741"}}, "geometry": {"type": "Point", "coordinates": [-23.361798580748, -35.66467971474576]}}, {"type": "Feature", "properties": {"norad_id": 27424, "name": "AQUA", "group": "resource", "lat": -5.024506650060165, "lon": -43.074422648392904, "alt_km": 691.3263839346992, "timestamp": "2025-12-21T03:56:50.511063+00:00", "meta": {"OBJECT_NAME": "AQUA", "OBJECT_ID": "2002-022A", "EPOCH": "2025-12-20T18:24:35.769024", "MEAN_MOTION": 14.61825237, "ECCENTRICITY": 0.0001388, "INCLINATION": 98.4047, "RA_OF_ASC_NODE": 315.7769, "ARG_OF_PERICENTER": 112.2049, "MEAN_ANOMALY": 312.7781, "EPHEMERIS_TYPE": 0, "CLASSIFICATION_TYPE": "U", "NORAD_CAT_ID": 27424, "ELEMENT_SET_NO": 999, "REV_AT_EPOCH": 25720, "BSTAR": 0.00012804, "MEAN_MOTION_DOT": 5.9e-06, "MEAN_MOTION_DDOT": 0}, "tle": {"line1": "1 27424U 02022A   25354.76708066  .00000590  00000+0  12804-3 0  9995", "line2": "2 27424  98.4047 315.7769 0001388 112.2049 312.7781 14.61825237257204"}}, "geometry": {"type": "Point", "coordinates": [-43.074422648392904, -5.024506650060165]}}, {"type": "Feature", "properties": {"norad_id": 28051, "name": "IRS-P6 (RESOURCESAT-1)", "group": "resource", "lat": 19.93597739791204, "lon": -141.81458548096515, "alt_km": 725.3975917898169, "timestamp": "2025-12-21T03:56:50.511074+00:00", "meta": {"OBJECT_NAME": "IRS-P6 (RESOURCESAT-1)", "OBJECT_ID": "2003-046A", "EPOCH": "2025-12-20T21:19:04.865664", "MEAN_MOTION": 14.36077376, "ECCENTRICITY": 0.0064691, "INCLINATION": 98.2169, "RA_OF_ASC_NODE": 34.9178, "ARG_OF_PERICENTER": 156.3002, "MEAN_ANOMALY": 16.1754, "EPHEMERIS_TYPE": 0, "CLASSIFICATION_TYPE": "U", "NORAD_CAT_ID": 28051, "ELEMENT_SET_NO": 999, "REV_AT_EPOCH": 15493, "BSTAR": -1.4893e-05, "MEAN_MOTION_DOT": -8.5e-07, "MEAN_MOTION_DDOT": 0}, "tle": {"line1": "1 28051U 03046A   25354.88825076 -.00000085  00000+0 -14893-4 0  9995", "line2": "2 28051  98.2169  34.9178 0064691 156.3002  16.1754 14.36077376154938"}}, "geometry": {"type": "Point", "coordinates": [-141.81458548096515, 19.93597739791204]}}, {"type": "Feature", "properties": {"norad_id": 28220, "name": "SHIYAN-1 (SY-1)", "group": "resource", "lat": -54.57679179658706, "lon": 68.44875521157502, "alt_km": 484.3310194290516, "timestamp": "2025-12-21T03:56:50.511084+00:00", "meta": {"OBJECT_NAME": "SHIYAN-1 (SY-1)", "OBJECT_ID": "2004-012A", "EPOCH": "2025-12-20T10:54:15.638688", "MEAN_MOTION": 15.28330123, "ECCENTRICITY": 0.00052308, "INCLINATION": 97.893, "RA_OF_ASC_NODE": 56.4489, "ARG_OF_PERICENTER": 293.6442, "MEAN_ANOMALY": 66.4247, "EPHEMERIS_TYPE": 0, "CLASSIFICATION_TYPE": "U", "NORAD_CAT_ID": 28220, "ELEMENT_SET_NO": 999, "REV_AT_EPOCH": 18374, "BSTAR": 0.00035174832, "MEAN_MOTION_DOT": 9.629e-05, "MEAN_MOTION_DDOT": 0}, "tle": {"line1": "1 28220U 04012A   25354.45434767  .00009629  00000+0  35175-3 0  9999", "line2": "2 28220  97.8930  56.4489 0005230 293.6442  66.4247 15.28330123183748"}}, "geometry": {"type": "Point", "coordinates": [68.44875521157502, -54.57679179658706]}}, {"type": "Feature", "properties": {"norad_id": 28376, "name": "AURA", "group": "resource", "lat": 76.8713948837886, "lon": 164.2890061439309, "alt_km": 681.8500770758119, "timestamp": "2025-12-21T03:56:50.511095+00:00", "meta": {"OBJECT_NAME": "AURA", "OBJECT_ID": "2004-026A", "EPOCH": "2025-12-20T19:16:19.248384", "MEAN_MOTION": 14.60963258, "ECCENTRICITY": 0.0001373, "INCLINATION": 98.3196, "RA_OF_ASC_NODE": 305.0674, "ARG_OF_PERICENTER": 92.8715, "MEAN_ANOMALY": 267.2642, "EPHEMERIS_TYPE": 0, "CLASSIFICATION_TYPE": "U", "NORAD_CAT_ID": 28376, "ELEMENT_SET_NO": 999, "REV_AT_EPOCH": 14016, "BSTAR": 0.00014983, "MEAN_MOTION_DOT": 6.86e-06, "MEAN_MOTION_DDOT": 0}, "tle": {"line1": "1 28376U 04026A   25354.80300056  .00000686  00000+0  14983-3 0  9996", "line2": "2 28376  98.3196 305.0674 0001373  92.8715 267.2642 14.60963258140160"}}, "geometry": {"type": "Point", "coordinates": [164.2890061439309, 76.8713948837886]}}]}